[
    {
        "CCSDS_OMM_VERS": "3.0",
        "COMMENT": "GENERATED VIA SPACE-TRACK.ORG API",
        "CREATION_DATE": "2025-05-03T17:28:03",
        "ORIGINATOR": "18 SPCS",
        "OBJECT_NAME": "BEIDOU 8",
        "OBJECT_ID": "2011-013A",
        "CENTER_NAME": "EARTH",
        "REF_FRAME": "TEME",
        "TIME_SYSTEM": "UTC",
        "MEAN_ELEMENT_THEORY": "SGP4",
        "EPOCH": "2025-05-03T10:42:01.078848",
        "MEAN_MOTION": "1.00277473",
        "ECCENTRICITY": "0.00296780",
        "INCLINATION": "61.8266",
        "RA_OF_ASC_NODE": "44.0343",
        "ARG_OF_PERICENTER": "180.1596",
        "MEAN_ANOMALY": "266.4733",
        "EPHEMERIS_TYPE": "0",
        "CLASSIFICATION_TYPE": "U",
        "NORAD_CAT_ID": "37384",
        "ELEMENT_SET_NO": "999",
        "REV_AT_EPOCH": "5155",
        "BSTAR": "0.00000000000000",
        "MEAN_MOTION_DOT": "-0.00000204",
        "MEAN_MOTION_DDOT": "0.0000000000000",
        "SEMIMAJOR_AXIS": "42163.137",
        "PERIOD": "1436.015",
        "APOAPSIS": "35910.134",
        "PERIAPSIS": "35659.871",
        "OBJECT_TYPE": "PAYLOAD",
        "RCS_SIZE": "LARGE",
        "COUNTRY_CODE": "PRC",
        "LAUNCH_DATE": "2011-04-09",
        "SITE": "XSC",
        "DECAY_DATE": null,
        "FILE": "4717971",
        "GP_ID": "286759156",
        "TLE_LINE0": "0 BEIDOU 8",
        "TLE_LINE1": "1 37384U 11013A   25123.44584582 -.00000204  00000-0  00000-0 0  9991",
        "TLE_LINE2": "2 37384  61.8266  44.0343 0029678 180.1596 266.4733  1.00277473 51554"
    }
]